IRIDIUM 116             
1 43072U 17083C   25032.41656322  .00000668  00000+0  23141-3 0  9999
2 43072  86.4019 171.3121 0002191  88.6537 271.4910 14.34215677372390
IRIDIUM 130             
1 43073U 17083D   25031.82670212  .00000403  00000+0  13669-3 0  9999
2 43073  86.4023 171.7837 0002241  98.6805 261.4644 14.34214162372255
IRIDIUM 151             
1 43074U 17083E   25032.42924861 -.00000264  00000+0 -10129-3 0  9994
2 43074  86.4029 171.3539 0001848  90.3206 269.8201 14.34216526372362
IRIDIUM 134             
1 43075U 17083F   25032.46731103  .00000701  00000+0  24311-3 0  9996
2 43075  86.4024 171.3388 0002290  96.1841 263.9615 14.34223379372336
IRIDIUM 137             
1 43076U 17083G   25031.64276549  .00000328  00000+0  10995-3 0  9992
2 43076  86.4024 171.7651 0002280  82.5606 277.5848 14.34220005372287
IRIDIUM 141             
1 43077U 17083H   25032.47364680  .00000526  00000+0  18085-3 0  9997
2 43077  86.4024 171.2783 0001824 103.4631 256.6768 14.34215356372409
IRIDIUM 153             
1 43078U 17083J   25031.86767374  .00000033  00000+0  47856-5 0  9990
2 43078  86.4012 140.0581 0001491 113.2885 246.8467 14.34216977373427
IRIDIUM 131             
1 43079U 17083K   25031.83304380  .00000381  00000+0  12902-3 0  9990
2 43079  86.4025 171.6975 0001844  93.7042 266.4365 14.34219488372242
